{"type": "FeatureCollection", "features": [ {"type": "Feature", "properties": {"norad_id": 33153, "name": "INTELSAT 25 (IS-25)", "group": "intelsat", "lat": 0.33316340077570294, "lon": -106.54094304534901, "alt_km": 35763.98190671085, "timestamp": "2025-12-08T13:49:31.460982+00:00", "meta": {"OBJECT_NAME": "INTELSAT 25 (IS-25)", "OBJECT_ID": "2008-034A", "EPOCH": "2025-12-08T06:36:22.781088", "MEAN_MOTION": 1.00270471, "ECCENTRICITY": 0.00054284, "INCLINATION": 2.216, "RA_OF_ASC_NODE": 82.6954, "ARG_OF_PERICENTER": 183.2356, "MEAN_ANOMALY": 238.9548, "EPHEMERIS_TYPE": 0, "CLASSIFICATION_TYPE": "U", "NORAD_CAT_ID": 33153, "ELEMENT_SET_NO": 999, "REV_AT_EPOCH": 6378, "BSTAR": 0, "MEAN_MOTION_DOT": -2.22e-06, "MEAN_MOTION_DDOT": 0}, "tle": {"line1": "1 33153U 08034A   25342.27526367 -.00000222  00000+0  00000+0 0  9999", "line2": "2 33153   2.2160  82.6954 0005428 183.2356 238.9548  1.00270471 63784"}}, "geometry": {"type": "Point", "coordinates": [-106.54094304534901, 0.33316340077570294]}}, {"type": "Feature", "properties": {"norad_id": 33376, "name": "GALAXY 19 (G-19)", "group": "intelsat", "lat": -0.025757283977511373, "lon": -172.08492669213203, "alt_km": 35784.72034671522, "timestamp": "2025-12-08T13:49:31.460994+00:00", "meta": {"OBJECT_NAME": "GALAXY 19 (G-19)", "OBJECT_ID": "2008-045A", "EPOCH": "2025-12-08T06:02:16.852416", "MEAN_MOTION": 1.00269875, "ECCENTRICITY": 0.00033885, "INCLINATION": 0.0168, "RA_OF_ASC_NODE": 305.4032, "ARG_OF_PERICENTER": 324.9632, "MEAN_ANOMALY": 160.4637, "EPHEMERIS_TYPE": 0, "CLASSIFICATION_TYPE": "U", "NORAD_CAT_ID": 33376, "ELEMENT_SET_NO": 999, "REV_AT_EPOCH": 6298, "BSTAR": 0, "MEAN_MOTION_DOT": -1.36e-06, "MEAN_MOTION_DDOT": 0}, "tle": {"line1": "1 33376U 08045A   25342.25158394 -.00000136  00000+0  00000+0 0  9991", "line2": "2 33376   0.0168 305.4032 0003388 324.9632 160.4637  1.00269875 62987"}}, "geometry": {"type": "Point", "coordinates": [-172.08492669213203, -0.025757283977511373]}}, {"type": "Feature", "properties": {"norad_id": 35493, "name": "FM-5", "group": "intelsat", "lat": -0.029756198395346246, "lon": -161.1818861615066, "alt_km": 35783.354656087715, "timestamp": "2025-12-08T13:49:31.461007+00:00", "meta": {"OBJECT_NAME": "FM-5", "OBJECT_ID": "2009-034A", "EPOCH": "2025-12-08T01:12:31.300128", "MEAN_MOTION": 1.00271963, "ECCENTRICITY": 6.781e-05, "INCLINATION": 0.0193, "RA_OF_ASC_NODE": 289.5767, "ARG_OF_PERICENTER": 251.7714, "MEAN_ANOMALY": 187.7034, "EPHEMERIS_TYPE": 0, "CLASSIFICATION_TYPE": "U", "NORAD_CAT_ID": 35493, "ELEMENT_SET_NO": 999, "REV_AT_EPOCH": 4472, "BSTAR": 0, "MEAN_MOTION_DOT": -1.97e-06, "MEAN_MOTION_DDOT": 0}, "tle": {"line1": "1 35493U 09034A   25342.05036227 -.00000197  00000+0  00000+0 0  9997", "line2": "2 35493   0.0193 289.5767 0000678 251.7714 187.7034  1.00271963 44727"}}, "geometry": {"type": "Point", "coordinates": [-161.1818861615066, -0.029756198395346246]}}, {"type": "Feature", "properties": {"norad_id": 36097, "name": "INTELSAT 14 (IS-14)", "group": "intelsat", "lat": -0.03139115755016845, "lon": -120.04685953178908, "alt_km": 35775.93362576053, "timestamp": "2025-12-08T13:49:31.461019+00:00", "meta": {"OBJECT_NAME": "INTELSAT 14 (IS-14)", "OBJECT_ID": "2009-064A", "EPOCH": "2025-12-08T06:32:30.651936", "MEAN_MOTION": 1.00270661, "ECCENTRICITY": 0.00027086, "INCLINATION": 0.0099, "RA_OF_ASC_NODE": 327.5541, "ARG_OF_PERICENTER": 296.1508, "MEAN_ANOMALY": 226.7144, "EPHEMERIS_TYPE": 0, "CLASSIFICATION_TYPE": "U", "NORAD_CAT_ID": 36097, "ELEMENT_SET_NO": 999, "REV_AT_EPOCH": 5869, "BSTAR": 0, "MEAN_MOTION_DOT": -2.71e-06, "MEAN_MOTION_DDOT": 0}, "tle": {"line1": "1 36097U 09064A   25342.27257699 -.00000271  00000+0  00000+0 0  9996", "line2": "2 36097   0.0099 327.5541 0002708 296.1508 226.7144  1.00270661 58697"}}, "geometry": {"type": "Point", "coordinates": [-120.04685953178908, -0.03139115755016845]}}, {"type": "Feature", "properties": {"norad_id": 36106, "name": "INTELSAT 15 (IS-15)", "group": "intelsat", "lat": 0.008165999964186885, "lon": 10.13571087224167, "alt_km": 35789.70487853651, "timestamp": "2025-12-08T13:49:31.461030+00:00", "meta": {"OBJECT_NAME": "INTELSAT 15 (IS-15)", "OBJECT_ID": "2009-067A", "EPOCH": "2025-12-08T07:09:27.115200", "MEAN_MOTION": 1.00270231, "ECCENTRICITY": 0.00024729, "INCLINATION": 0.0135, "RA_OF_ASC_NODE": 6.1088, "ARG_OF_PERICENTER": 256.4158, "MEAN_ANOMALY": 7.2984, "EPHEMERIS_TYPE": 0, "CLASSIFICATION_TYPE": "U", "NORAD_CAT_ID": 36106, "ELEMENT_SET_NO": 999, "REV_AT_EPOCH": 3931, "BSTAR": 0, "MEAN_MOTION_DOT": -1.82e-06, "MEAN_MOTION_DDOT": 0}, "tle": {"line1": "1 36106U 09067A   25342.29823050 -.00000182  00000+0  00000+0 0  9993", "line2": "2 36106   0.0135   6.1088 0002472 256.4158   7.2984  1.00270231 39318"}}, "geometry": {"type": "Point", "coordinates": [10.13571087224167, 0.008165999964186885]}}, {"type": "Feature", "properties": {"norad_id": 36131, "name": "DIRECTV 12", "group": "intelsat", "lat": 0.018542088735870117, "lon": -177.7665641339326, "alt_km": 35788.314959041374, "timestamp": "2025-12-08T13:49:31.461042+00:00", "meta": {"OBJECT_NAME": "DIRECTV 12", "OBJECT_ID": "2009-075A", "EPOCH": "2025-12-08T05:59:12.158592", "MEAN_MOTION": 1.00271707, "ECCENTRICITY": 5.359e-05, "INCLINATION": 0.0428, "RA_OF_ASC_NODE": 139.5638, "ARG_OF_PERICENTER": 212.1136, "MEAN_ANOMALY": 72.6596, "EPHEMERIS_TYPE": 0, "CLASSIFICATION_TYPE": "U", "NORAD_CAT_ID": 36131, "ELEMENT_SET_NO": 999, "REV_AT_EPOCH": 4463, "BSTAR": 0, "MEAN_MOTION_DOT": -1.01e-06, "MEAN_MOTION_DDOT": 0}, "tle": {"line1": "1 36131U 09075A   25342.24944628 -.00000101  00000+0  00000+0 0  9991", "line2": "2 36131   0.0428 139.5638 0000535 212.1136  72.6596  1.00271707 44631"}}, "geometry": {"type": "Point", "coordinates": [-177.7665641339326, 0.018542088735870117]}}, {"type": "Feature", "properties": {"norad_id": 36397, "name": "INTELSAT 16 (IS-16)", "group": "intelsat", "lat": -0.033604312460870187, "lon": -151.26268588779752, "alt_km": 35780.38853157782, "timestamp": "2025-12-08T13:49:31.461053+00:00", "meta": {"OBJECT_NAME": "INTELSAT 16 (IS-16)", "OBJECT_ID": "2010-006A", "EPOCH": "2025-12-08T06:13:46.013376", "MEAN_MOTION": 1.00270495, "ECCENTRICITY": 0.00023331, "INCLINATION": 0.0184, "RA_OF_ASC_NODE": 303.6194, "ARG_OF_PERICENTER": 317.0913, "MEAN_ANOMALY": 193.8028, "EPHEMERIS_TYPE": 0, "CLASSIFICATION_TYPE": "U", "NORAD_CAT_ID": 36397, "ELEMENT_SET_NO": 999, "REV_AT_EPOCH": 5774, "BSTAR": 0, "MEAN_MOTION_DOT": -2.42e-06, "MEAN_MOTION_DDOT": 0}, "tle": {"line1": "1 36397U 10006A   25342.25956034 -.00000242  00000+0  00000+0 0  9992", "line2": "2 36397   0.0184 303.6194 0002333 317.0913 193.8028  1.00270495 57746"}}, "geometry": {"type": "Point", "coordinates": [-151.26268588779752, -0.033604312460870187]}}, {"type": "Feature", "properties": {"norad_id": 37185, "name": "XM-5", "group": "intelsat", "lat": -0.06256353306020009, "lon": 169.77245523584864, "alt_km": 35780.01183906143, "timestamp": "2025-12-08T13:49:31.461065+00:00", "meta": {"OBJECT_NAME": "XM-5", "OBJECT_ID": "2010-053A", "EPOCH": "2025-12-08T05:52:25.053024", "MEAN_MOTION": 1.00270611, "ECCENTRICITY": 0.00015753, "INCLINATION": 0.0633, "RA_OF_ASC_NODE": 272.7253, "ARG_OF_PERICENTER": 242.5035, "MEAN_ANOMALY": 254.9421, "EPHEMERIS_TYPE": 0, "CLASSIFICATION_TYPE": "U", "NORAD_CAT_ID": 37185, "ELEMENT_SET_NO": 999, "REV_AT_EPOCH": 5556, "BSTAR": 0, "MEAN_MOTION_DOT": -2e-07, "MEAN_MOTION_DDOT": 0}, "tle": {"line1": "1 37185U 10053A   25342.24473441 -.00000020  00000+0  00000+0 0  9999", "line2": "2 37185   0.0633 272.7253 0001575 242.5035 254.9421  1.00270611 55561"}}, "geometry": {"type": "Point", "coordinates": [169.77245523584864, -0.06256353306020009]}}, {"type": "Feature", "properties": {"norad_id": 37238, "name": "INTELSAT 17 (IS-17)", "group": "intelsat", "lat": 0.01946688157216257, "lon": -9.007521496455357, "alt_km": 35786.39362743548, "timestamp": "2025-12-08T13:49:31.461076+00:00", "meta": {"OBJECT_NAME": "INTELSAT 17 (IS-17)", "OBJECT_ID": "2010-065B", "EPOCH": "2025-12-08T05:21:14.977728", "MEAN_MOTION": 1.00272189, "ECCENTRICITY": 0.00023868, "INCLINATION": 0.0182, "RA_OF_ASC_NODE": 278.9294, "ARG_OF_PERICENTER": 339.5317, "MEAN_ANOMALY": 325.0916, "EPHEMERIS_TYPE": 0, "CLASSIFICATION_TYPE": "U", "NORAD_CAT_ID": 37238, "ELEMENT_SET_NO": 999, "REV_AT_EPOCH": 5133, "BSTAR": 0, "MEAN_MOTION_DOT": 1e-08, "MEAN_MOTION_DDOT": 0}, "tle": {"line1": "1 37238U 10065B   25342.22309002  .00000001  00000+0  00000+0 0  9998", "line2": "2 37238   0.0182 278.9294 0002386 339.5317 325.0916  1.00272189 51335"}}, "geometry": {"type": "Point", "coordinates": [-9.007521496455357, 0.01946688157216257]}}, {"type": "Feature", "properties": {"norad_id": 37392, "name": "INTELSAT 28 (IS-28)", "group": "intelsat", "lat": 0.2473517935116026, "lon": -106.75751201133241, "alt_km": 35769.233938345526, "timestamp": "2025-12-08T13:49:31.461088+00:00", "meta": {"OBJECT_NAME": "INTELSAT 28 (IS-28)", "OBJECT_ID": "2011-016A", "EPOCH": "2025-12-08T03:10:49.968192", "MEAN_MOTION": 1.0027034, "ECCENTRICITY": 0.00041473, "INCLINATION": 1.3125, "RA_OF_ASC_NODE": 85.113, "ARG_OF_PERICENTER": 178.8993, "MEAN_ANOMALY": 189.131, "EPHEMERIS_TYPE": 0, "CLASSIFICATION_TYPE": "U", "NORAD_CAT_ID": 37392, "ELEMENT_SET_NO": 999, "REV_AT_EPOCH": 5137, "BSTAR": 0, "MEAN_MOTION_DOT": -2.23e-06, "MEAN_MOTION_DDOT": 0}, "tle": {"line1": "1 37392U 11016A   25342.13252278 -.00000223  00000+0  00000+0 0  9995", "line2": "2 37392   1.3125  85.1130 0004147 178.8993 189.1310  1.00270340 51373"}}, "geometry": {"type": "Point", "coordinates": [-106.75751201133241, 0.2473517935116026]}}]}